NORAD_CAT_ID,OBJECT_NAME,OBJECT_TYPE,EPOCH,MEAN_MOTION,ECCENTRICITY,INCLINATION,RA_OF_ASC_NODE,ARG_OF_PERICENTER,MEAN_ANOMALY,BSTAR,MEAN_MOTION_DOT,MEAN_MOTION_DDOT,TLE_LINE0,TLE_LINE1,TLE_LINE2,SEMIMAJOR_AXIS,PERIOD,APOGEE,PERIGEE,DECAYED
49749,STARLINK-3250,PAYLOAD,2022-08-20 15:52:24,15.08837128,0.0002009,53.2159,211.7066,49.3419,310.7747,2.4511e-05,1.02e-06,0.0,0 STARLINK-3250,1 49749U 21115AB  22232.66139140  .00000102  00000-0  24511-4 0  9994,2 49749  53.2159 211.7066 0002009  49.3419 310.7747 15.08837128 39727,6917.889,95.438,541.144,538.364,0.0
49749,STARLINK-3250,PAYLOAD,2022-08-21 04:35:29,15.08841206,0.0002009,53.2158,209.3282,49.6373,310.4794,3.5772e-05,2.81e-06,0.0,0 STARLINK-3250,1 49749U 21115AB  22233.19130838  .00000281  00000-0  35772-4 0  9997,2 49749  53.2158 209.3282 0002009  49.6373 310.4794 15.08841206 40915,6917.877,95.437,541.132,538.352,0.0
49749,STARLINK-3250,PAYLOAD,2022-08-21 06:10:52,15.08841404,0.0002018,53.2159,209.0308,49.7693,310.3475,3.6593e-05,2.94e-06,0.0,0 STARLINK-3250,1 49749U 21115AB  22233.25754819  .00000294  00000-0  36593-4 0  9991,2 49749  53.2159 209.0308 0002018  49.7693 310.3475 15.08841404 39810,6917.876,95.437,541.137,538.345,0.0
49749,STARLINK-3250,PAYLOAD,2022-08-21 22:04:43,15.08834553,0.0002048,53.2162,206.0572,50.9762,309.1412,4.4492e-05,4.2e-06,0.0,0 STARLINK-3250,1 49749U 21115AB  22233.91995142  .00000420  00000-0  44492-4 0  9998,2 49749  53.2162 206.0572 0002048  50.9762 309.1412 15.08834553 39913,6917.897,95.438,541.179,538.345,0.0
49749,STARLINK-3250,PAYLOAD,2022-08-22 04:26:16,15.08829583,0.0002022,53.2165,204.867,52.2489,307.8686,8.5468e-08,-2.87e-06,0.0,0 STARLINK-3250,1 49749U 21115AB  22234.18491711 -.00000287  00000-0  85468-7 0  9994,2 49749  53.2165 204.8670 0002022  52.2489 307.8686 15.08829583 41068,6917.912,95.438,541.176,538.378,0.0
49749,STARLINK-3250,PAYLOAD,2022-08-22 07:37:03,15.08828771,0.0002003,53.2163,204.2721,52.1958,307.9215,-7.4033e-06,-4.06e-06,0.0,0 STARLINK-3250,1 49749U 21115AB  22234.31739852 -.00000406  00000-0 -74033-5 0  9998,2 49749  53.2163 204.2721 0002003  52.1958 307.9215 15.08828771 39970,6917.915,95.438,541.165,538.394,0.0
49749,STARLINK-3250,PAYLOAD,2022-08-22 15:33:59,15.08829721,0.0002018,53.2164,202.7853,52.5287,307.5888,-4.6227e-06,-3.62e-06,0.0,0 STARLINK-3250,1 49749U 21115AB  22234.64859955 -.00000362  00000-0 -46227-5 0  9996,2 49749  53.2164 202.7853 0002018  52.5287 307.5888 15.08829721 40021,6917.912,95.438,541.173,538.381,0.0
49749,STARLINK-3250,PAYLOAD,2022-08-23 07:27:50,15.08835891,0.0001994,53.2165,199.811,54.0802,306.0375,-2.2011e-05,-6.38e-06,0.0,0 STARLINK-3250,1 49749U 21115AB  22235.31099811 -.00000638  00000-0 -22011-4 0  9998,2 49749  53.2165 199.8110 0001994  54.0802 306.0375 15.08835891 41230,6917.893,95.438,541.137,538.379,0.0
49749,STARLINK-3250,PAYLOAD,2022-08-24 07:18:37,15.08835402,0.0002052,53.216,195.3514,51.0282,309.0893,0.00010078,1.316e-05,0.0,0 STARLINK-3250,1 49749U 21115AB  22236.30459641  .00001316  00000-0  10078-3 0  9990,2 49749  53.2160 195.3514 0002052  51.0282 309.0893 15.08835402 40278,6917.894,95.438,541.179,538.34,0.0
49749,STARLINK-3250,PAYLOAD,2022-08-25 03:58:37,15.08843696,0.0002132,53.2162,191.486,51.4387,308.6796,0.00010778,1.428e-05,0.0,0 STARLINK-3250,1 49749U 21115AB  22237.16571128  .00001428  00000-0  10778-3 0  9991,2 49749  53.2162 191.4860 0002132  51.4387 308.6796 15.08843696 41519,6917.869,95.437,541.209,538.259,0.0
49749,STARLINK-3250,PAYLOAD,2022-08-25 05:34:00,15.08843246,0.0002194,53.2157,191.1885,47.958,312.1599,8.4067e-05,1.05e-05,0.0,0 STARLINK-3250,1 49749U 21115AB  22237.23195235  .00001050  00000-0  84067-4 0  9994,2 49749  53.2157 191.1885 0002194  47.9580 312.1599 15.08843246 40410,6917.87,95.437,541.253,538.218,0.0
49749,STARLINK-3250,PAYLOAD,2022-08-26 02:14:02,15.08836714,0.0002196,53.2163,187.3237,51.6439,308.475,-3.3506e-05,-8.21e-06,0.0,0 STARLINK-3250,1 49749U 21115AB  22238.09308197 -.00000821  00000-0 -33506-4 0  9991,2 49749  53.2163 187.3237 0002196  51.6439 308.4750 15.08836714 41658,6917.89,95.438,541.275,538.236,0.0
49749,STARLINK-3250,PAYLOAD,2022-08-26 07:00:11,15.0883783,0.0002217,53.2165,186.4311,52.6658,307.4536,-2.3203e-05,-6.58e-06,0.0,0 STARLINK-3250,1 49749U 21115AB  22238.29180115 -.00000658  00000-0 -23203-4 0  9992,2 49749  53.2165 186.4311 0002217  52.6658 307.4536 15.08837830 40572,6917.887,95.438,541.286,538.218,0.0
49749,STARLINK-3250,PAYLOAD,2022-08-27 05:15:34,15.08845744,0.0002213,53.2168,182.2678,58.3975,301.7233,1.2442e-05,-9e-07,0.0,0 STARLINK-3250,1 49749U 21115AB  22239.21915450 -.00000090  00000-0  12442-4 0  9995,2 49749  53.2168 182.2678 0002213  58.3975 301.7233 15.08845744 40716,6917.863,95.437,541.259,538.197,0.0
49749,STARLINK-3250,PAYLOAD,2022-08-28 03:30:59,15.08838655,0.0002174,53.2159,178.1051,53.8331,306.2862,2.8563e-05,1.66e-06,0.0,0 STARLINK-3250,1 49749U 21115AB  22240.14651866  .00000166  00000-0  28563-4 0  9991,2 49749  53.2159 178.1051 0002174  53.8331 306.2862 15.08838655 41966,6917.885,95.438,541.253,538.246,0.0
49749,STARLINK-3250,PAYLOAD,2022-08-28 13:03:18,15.08838977,0.0002186,53.2159,176.3209,53.978,306.1414,2.8641e-05,1.68e-06,0.0,0 STARLINK-3250,1 49749U 21115AB  22240.54395873  .00000168  00000-0  28641-4 0  9997,2 49749  53.2159 176.3209 0002186  53.9780 306.1414 15.08838977 40916,6917.884,95.438,541.261,538.236,0.0
49749,STARLINK-3250,PAYLOAD,2022-08-29 04:57:08,15.08848317,0.0002234,53.2162,173.347,55.3288,304.7914,5.1878e-05,5.38e-06,0.0,0 STARLINK-3250,1 49749U 21115AB  22241.20635006  .00000538  00000-0  51878-4 0  9995,2 49749  53.2162 173.3470 0002234  55.3288 304.7914 15.08848317 42123,6917.855,95.437,541.265,538.175,0.0
49749,STARLINK-3250,PAYLOAD,2022-08-29 12:54:05,15.08836641,0.0002312,53.217,171.8582,56.6493,303.472,-3.9156e-05,-9.11e-06,0.0,0 STARLINK-3250,1 49749U 21115AB  22241.53756077 -.00000911  00000-0 -39156-4 0  9995,2 49749  53.2170 171.8582 0002312  56.6493 303.4720 15.08836641 41068,6917.891,95.438,541.355,538.156,0.0
49749,STARLINK-3250,PAYLOAD,2022-08-30 04:47:56,15.08839475,0.0002137,53.217,168.8851,58.4368,301.6833,3.8088e-05,3.18e-06,0.0,0 STARLINK-3250,1 49749U 21115AB  22242.19995612  .00000318  00000-0  38088-4 0  9990,2 49749  53.2170 168.8851 0002137  58.4368 301.6833 15.08839475 42276,6917.882,95.438,541.225,538.269,0.0
49749,STARLINK-3250,PAYLOAD,2022-08-30 12:44:51,15.08841282,0.0002141,53.2173,167.3983,58.7274,301.3928,3.3489e-05,2.45e-06,0.0,0 STARLINK-3250,1 49749U 21115AB  22242.53115518  .00000245  00000-0  33489-4 0  9996,2 49749  53.2173 167.3983 0002141  58.7274 301.3928 15.08841282 41217,6917.876,95.437,541.223,538.26,0.0
49749,STARLINK-3250,PAYLOAD,2022-08-31 04:38:44,15.0883281,0.0002178,53.2174,164.4245,61.4666,298.6545,-6.434e-05,-1.312e-05,0.0,0 STARLINK-3250,1 49749U 21115AB  22243.19356564 -.00001312  00000-0 -64340-4 0  9995,2 49749  53.2174 164.4245 0002178  61.4666 298.6545 15.08832810 41314,6917.902,95.438,541.274,538.261,0.0
49749,STARLINK-3250,PAYLOAD,2022-09-01 04:29:30,15.08841296,0.0002232,53.2178,159.9642,64.3467,295.7755,5.2841e-05,5.53e-06,0.0,0 STARLINK-3250,1 49749U 21115AB  22244.18715915  .00000553  00000-0  52841-4 0  9991,2 49749  53.2178 159.9642 0002232  64.3467 295.7755 15.08841296 42578,6917.876,95.437,541.285,538.197,0.0
49749,STARLINK-3250,PAYLOAD,2022-09-02 02:44:55,15.08833118,0.0002141,53.2167,155.8028,57.5309,302.589,5.5104e-05,5.89e-06,0.0,0 STARLINK-3250,1 49749U 21115AB  22245.11452769  .00000589  00000-0  55104-4 0  9994,2 49749  53.2167 155.8028 0002141  57.5309 302.5890 15.08833118 42714,6917.901,95.438,541.248,538.285,0.0
49749,STARLINK-3250,PAYLOAD,2022-09-02 10:41:50,15.08837786,0.0002179,53.2168,154.3161,58.6058,301.5147,7.785e-05,9.51e-06,0.0,0 STARLINK-3250,1 49749U 21115AB  22245.44572593  .00000951  00000-0  77850-4 0  9993,2 49749  53.2168 154.3161 0002179  58.6058 301.5147 15.08837786 41652,6917.887,95.438,541.26,538.245,0.0
49749,STARLINK-3250,PAYLOAD,2022-09-03 02:35:42,15.0883096,0.0002141,53.217,151.3424,58.8484,301.2718,-2.1211e-05,-6.26e-06,0.0,0 STARLINK-3250,1 49749U 21115AB  22246.10813427 -.00000626  00000-0 -21211-4 0  9992,2 49749  53.2170 151.3424 0002141  58.8484 301.2718 15.08830960 41757,6917.908,95.438,541.254,538.292,0.0
49749,STARLINK-3250,PAYLOAD,2022-09-03 21:40:20,15.08839352,0.0002142,53.217,147.7737,59.4693,300.651,5.6512e-05,6.11e-06,0.0,0 STARLINK-3250,1 49749U 21115AB  22246.90300962  .00000611  00000-0  56512-4 0  9999,2 49749  53.2170 147.7737 0002142  59.4693 300.6510 15.08839352 41873,6917.882,95.438,541.229,538.266,0.0
49749,STARLINK-3250,PAYLOAD,2022-09-04 02:26:29,15.08844103,0.0002169,53.2168,146.8813,58.4804,301.64,9.3627e-05,1.202e-05,0.0,0 STARLINK-3250,1 49749U 21115AB  22247.10172565  .00001202  00000-0  93627-4 0  9993,2 49749  53.2168 146.8813 0002169  58.4804 301.6400 15.08844103 43014,6917.868,95.437,541.233,538.232,0.0
49749,STARLINK-3250,PAYLOAD,2022-09-04 10:23:25,15.08838298,0.0002186,53.2169,145.3947,58.5672,301.5534,3.5144e-05,2.71e-06,0.0,0 STARLINK-3250,1 49749U 21115AB  22247.43293096  .00000271  00000-0  35144-4 0  9997,2 49749  53.2169 145.3947 0002186  58.5672 301.5534 15.08838298 43060,6917.886,95.438,541.263,538.238,0.0
49749,STARLINK-3250,PAYLOAD,2022-09-05 02:17:15,15.08850883,0.0002109,53.2162,142.4203,59.0018,301.1181,0.00020984,3.054e-05,0.0,0 STARLINK-3250,1 49749U 21115AB  22248.09531906  .00003054  00000-0  20984-3 0  9992,2 49749  53.2162 142.4203 0002109  59.0018 301.1181 15.08850883 43160,6917.847,95.437,541.171,538.253,0.0
49749,STARLINK-3250,PAYLOAD,2022-09-05 10:14:11,15.08846241,0.0002151,53.2156,140.9338,59.7908,300.3297,0.00014125,1.961e-05,0.0,0 STARLINK-3250,1 49749U 21115AB  22248.42652390  .00001961  00000-0  14125-3 0  9995,2 49749  53.2156 140.9338 0002151  59.7908 300.3297 15.08846241 43215,6917.861,95.437,541.214,538.238,0.0
